[{
    "OBJECT_NAME": "IRIDIUM 33",
    "OBJECT_ID": "1997-051C",
    "EPOCH": "2023-11-02T18:25:41.138400",
    "MEAN_MOTION": 14.34163146,
    "ECCENTRICITY": 0.000715,
    "INCLINATION": 86.392,
    "RA_OF_ASC_NODE": 31.4725,
    "ARG_OF_PERICENTER": 196.3082,
    "MEAN_ANOMALY": 163.7885,
    "EPHEMERIS_TYPE": 0,
    "CLASSIFICATION_TYPE": "U",
    "NORAD_CAT_ID": 24946,
    "ELEMENT_SET_NO": 999,
    "REV_AT_EPOCH": 36782,
    "BSTAR": 0.00015724,
    "MEAN_MOTION_DOT": 4.6e-6,
    "MEAN_MOTION_DDOT": 0
},{
    "OBJECT_NAME": "IRIDIUM 33 DEB",
    "OBJECT_ID": "1997-051L",
    "EPOCH": "2023-11-02T16:47:50.375904",
    "MEAN_MOTION": 14.40098509,
    "ECCENTRICITY": 0.0011765,
    "INCLINATION": 86.407,
    "RA_OF_ASC_NODE": 26.3295,
    "ARG_OF_PERICENTER": 169.8472,
    "MEAN_ANOMALY": 190.2967,
    "EPHEMERIS_TYPE": 0,
    "CLASSIFICATION_TYPE": "U",
    "NORAD_CAT_ID": 33773,
    "ELEMENT_SET_NO": 999,
    "REV_AT_EPOCH": 77243,
    "BSTAR": 0.00048269,
    "MEAN_MOTION_DOT": 1.543e-5,
    "MEAN_MOTION_DDOT": 0
},{
    "OBJECT_NAME": "IRIDIUM 33 DEB",
    "OBJECT_ID": "1997-051N",
    "EPOCH": "2023-11-02T16:34:15.384576",
    "MEAN_MOTION": 14.37282005,
    "ECCENTRICITY": 0.0015474,
    "INCLINATION": 86.3705,
    "RA_OF_ASC_NODE": 17.4363,
    "ARG_OF_PERICENTER": 176.5256,
    "MEAN_ANOMALY": 304.5644,
    "EPHEMERIS_TYPE": 0,
    "CLASSIFICATION_TYPE": "U",
    "NORAD_CAT_ID": 33775,
    "ELEMENT_SET_NO": 999,
    "REV_AT_EPOCH": 77058,
    "BSTAR": 0.00060342,
    "MEAN_MOTION_DOT": 1.82e-5,
    "MEAN_MOTION_DDOT": 0
},{
    "OBJECT_NAME": "IRIDIUM 33 DEB",
    "OBJECT_ID": "1997-051P",
    "EPOCH": "2023-11-02T12:38:48.816096",
    "MEAN_MOTION": 14.35546023,
    "ECCENTRICITY": 0.0014067,
    "INCLINATION": 86.4086,
    "RA_OF_ASC_NODE": 43.7964,
    "ARG_OF_PERICENTER": 197.4298,
    "MEAN_ANOMALY": 173.3199,
    "EPHEMERIS_TYPE": 0,
    "CLASSIFICATION_TYPE": "U",
    "NORAD_CAT_ID": 33776,
    "ELEMENT_SET_NO": 999,
    "REV_AT_EPOCH": 77016,
    "BSTAR": 0.00050389,
    "MEAN_MOTION_DOT": 1.471e-5,
    "MEAN_MOTION_DDOT": 0
},{
    "OBJECT_NAME": "IRIDIUM 33 DEB",
    "OBJECT_ID": "1997-051Q",
    "EPOCH": "2023-11-02T13:18:33.037920",
    "MEAN_MOTION": 14.46053362,
    "ECCENTRICITY": 0.0010088,
    "INCLINATION": 86.3869,
    "RA_OF_ASC_NODE": 7.7823,
    "ARG_OF_PERICENTER": 340.3622,
    "MEAN_ANOMALY": 19.7191,
    "EPHEMERIS_TYPE": 0,
    "CLASSIFICATION_TYPE": "U",
    "NORAD_CAT_ID": 33777,
    "ELEMENT_SET_NO": 999,
    "REV_AT_EPOCH": 77352,
    "BSTAR": 0.0011539,
    "MEAN_MOTION_DOT": 4.135e-5,
    "MEAN_MOTION_DDOT": 0
},{
    "OBJECT_NAME": "IRIDIUM 33 DEB",
    "OBJECT_ID": "1997-051T",
    "EPOCH": "2023-11-02T14:49:25.980384",
    "MEAN_MOTION": 14.37969222,
    "ECCENTRICITY": 0.0011771,
    "INCLINATION": 86.3469,
    "RA_OF_ASC_NODE": 0.4947,
    "ARG_OF_PERICENTER": 178.1818,
    "MEAN_ANOMALY": 297.2473,
    "EPHEMERIS_TYPE": 0,
    "CLASSIFICATION_TYPE": "U",
    "NORAD_CAT_ID": 33850,
    "ELEMENT_SET_NO": 999,
    "REV_AT_EPOCH": 77054,
    "BSTAR": 0.00054364,
    "MEAN_MOTION_DOT": 1.663e-5,
    "MEAN_MOTION_DDOT": 0
},{
    "OBJECT_NAME": "IRIDIUM 33 DEB",
    "OBJECT_ID": "1997-051W",
    "EPOCH": "2023-11-02T12:42:19.498176",
    "MEAN_MOTION": 13.93564242,
    "ECCENTRICITY": 0.0225308,
    "INCLINATION": 86.0004,
    "RA_OF_ASC_NODE": 326.2699,
    "ARG_OF_PERICENTER": 73.7854,
    "MEAN_ANOMALY": 47.9842,
    "EPHEMERIS_TYPE": 0,
    "CLASSIFICATION_TYPE": "U",
    "NORAD_CAT_ID": 33853,
    "ELEMENT_SET_NO": 999,
    "REV_AT_EPOCH": 74583,
    "BSTAR": 0.0018972,
    "MEAN_MOTION_DOT": 3.088e-5,
    "MEAN_MOTION_DDOT": 0
},{
    "OBJECT_NAME": "IRIDIUM 33 DEB",
    "OBJECT_ID": "1997-051X",
    "EPOCH": "2023-11-02T11:09:56.066400",
    "MEAN_MOTION": 15.10124652,
    "ECCENTRICITY": 0.0013934,
    "INCLINATION": 86.2079,
    "RA_OF_ASC_NODE": 195.2527,
    "ARG_OF_PERICENTER": 87.3859,
    "MEAN_ANOMALY": 87.1796,
    "EPHEMERIS_TYPE": 0,
    "CLASSIFICATION_TYPE": "U",
    "NORAD_CAT_ID": 33854,
    "ELEMENT_SET_NO": 999,
    "REV_AT_EPOCH": 78337,
    "BSTAR": 0.0071089,
    "MEAN_MOTION_DOT": 0.00117852,
    "MEAN_MOTION_DDOT": 0
},{
    "OBJECT_NAME": "IRIDIUM 33 DEB",
    "OBJECT_ID": "1997-051AC",
    "EPOCH": "2023-11-02T15:28:10.059168",
    "MEAN_MOTION": 14.53640606,
    "ECCENTRICITY": 0.0047825,
    "INCLINATION": 86.3372,
    "RA_OF_ASC_NODE": 353.168,
    "ARG_OF_PERICENTER": 146.144,
    "MEAN_ANOMALY": 214.2836,
    "EPHEMERIS_TYPE": 0,
    "CLASSIFICATION_TYPE": "U",
    "NORAD_CAT_ID": 33859,
    "ELEMENT_SET_NO": 999,
    "REV_AT_EPOCH": 77156,
    "BSTAR": 0.0034066,
    "MEAN_MOTION_DOT": 0.00014501,
    "MEAN_MOTION_DDOT": 0
},{
    "OBJECT_NAME": "IRIDIUM 33 DEB",
    "OBJECT_ID": "1997-051AD",
    "EPOCH": "2023-11-02T14:35:21.798816",
    "MEAN_MOTION": 14.51005803,
    "ECCENTRICITY": 0.0013552,
    "INCLINATION": 86.393,
    "RA_OF_ASC_NODE": 3.5621,
    "ARG_OF_PERICENTER": 71.4013,
    "MEAN_ANOMALY": 60.1909,
    "EPHEMERIS_TYPE": 0,
    "CLASSIFICATION_TYPE": "U",
    "NORAD_CAT_ID": 33860,
    "ELEMENT_SET_NO": 999,
    "REV_AT_EPOCH": 77479,
    "BSTAR": 0.0014741,
    "MEAN_MOTION_DOT": 5.856e-5,
    "MEAN_MOTION_DDOT": 0
},{
    "OBJECT_NAME": "IRIDIUM 33 DEB",
    "OBJECT_ID": "1997-051AF",
    "EPOCH": "2023-11-02T15:02:48.620832",
    "MEAN_MOTION": 14.52533706,
    "ECCENTRICITY": 0.0064444,
    "INCLINATION": 86.4162,
    "RA_OF_ASC_NODE": 12.6407,
    "ARG_OF_PERICENTER": 172.8404,
    "MEAN_ANOMALY": 305.0366,
    "EPHEMERIS_TYPE": 0,
    "CLASSIFICATION_TYPE": "U",
    "NORAD_CAT_ID": 33862,
    "ELEMENT_SET_NO": 999,
    "REV_AT_EPOCH": 77565,
    "BSTAR": 0.0019978,
    "MEAN_MOTION_DOT": 8.41e-5,
    "MEAN_MOTION_DDOT": 0
},{
    "OBJECT_NAME": "IRIDIUM 33 DEB",
    "OBJECT_ID": "1997-051AH",
    "EPOCH": "2023-11-02T09:41:48.228288",
    "MEAN_MOTION": 14.63547471,
    "ECCENTRICITY": 0.0006905,
    "INCLINATION": 86.2662,
    "RA_OF_ASC_NODE": 278.434,
    "ARG_OF_PERICENTER": 341.76,
    "MEAN_ANOMALY": 138.0698,
    "EPHEMERIS_TYPE": 0,
    "CLASSIFICATION_TYPE": "U",
    "NORAD_CAT_ID": 33864,
    "ELEMENT_SET_NO": 999,
    "REV_AT_EPOCH": 77650,
    "BSTAR": 0.0047836,
    "MEAN_MOTION_DOT": 0.00024906,
    "MEAN_MOTION_DDOT": 0
},{
    "OBJECT_NAME": "IRIDIUM 33 DEB",
    "OBJECT_ID": "1997-051AK",
    "EPOCH": "2023-11-02T08:17:09.663072",
    "MEAN_MOTION": 14.17983165,
    "ECCENTRICITY": 0.0118347,
    "INCLINATION": 86.3046,
    "RA_OF_ASC_NODE": 57.3807,
    "ARG_OF_PERICENTER": 104.4847,
    "MEAN_ANOMALY": 310.6388,
    "EPHEMERIS_TYPE": 0,
    "CLASSIFICATION_TYPE": "U",
    "NORAD_CAT_ID": 33866,
    "ELEMENT_SET_NO": 999,
    "REV_AT_EPOCH": 75849,
    "BSTAR": 0.0013394,
    "MEAN_MOTION_DOT": 2.956e-5,
    "MEAN_MOTION_DDOT": 0
},{
    "OBJECT_NAME": "IRIDIUM 33 DEB",
    "OBJECT_ID": "1997-051AL",
    "EPOCH": "2023-11-02T12:32:47.530176",
    "MEAN_MOTION": 14.67430638,
    "ECCENTRICITY": 0.001828,
    "INCLINATION": 86.4181,
    "RA_OF_ASC_NODE": 343.8059,
    "ARG_OF_PERICENTER": 240.7363,
    "MEAN_ANOMALY": 119.2024,
    "EPHEMERIS_TYPE": 0,
    "CLASSIFICATION_TYPE": "U",
    "NORAD_CAT_ID": 33867,
    "ELEMENT_SET_NO": 999,
    "REV_AT_EPOCH": 78017,
    "BSTAR": 0.0014008,
    "MEAN_MOTION_DOT": 7.967e-5,
    "MEAN_MOTION_DDOT": 0
},{
    "OBJECT_NAME": "IRIDIUM 33 DEB",
    "OBJECT_ID": "1997-051AN",
    "EPOCH": "2023-11-02T14:11:29.767200",
    "MEAN_MOTION": 14.83105975,
    "ECCENTRICITY": 0.0043229,
    "INCLINATION": 86.3249,
    "RA_OF_ASC_NODE": 16.4074,
    "ARG_OF_PERICENTER": 186.7945,
    "MEAN_ANOMALY": 173.2698,
    "EPHEMERIS_TYPE": 0,
    "CLASSIFICATION_TYPE": "U",
    "NORAD_CAT_ID": 33869,
    "ELEMENT_SET_NO": 999,
    "REV_AT_EPOCH": 77035,
    "BSTAR": 0.0091891,
    "MEAN_MOTION_DOT": 0.00076835,
    "MEAN_MOTION_DDOT": 0
},{
    "OBJECT_NAME": "IRIDIUM 33 DEB",
    "OBJECT_ID": "1997-051AP",
    "EPOCH": "2023-11-02T18:11:51.546336",
    "MEAN_MOTION": 14.38767879,
    "ECCENTRICITY": 0.0021912,
    "INCLINATION": 86.3818,
    "RA_OF_ASC_NODE": 26.6156,
    "ARG_OF_PERICENTER": 206.3391,
    "MEAN_ANOMALY": 279.3192,
    "EPHEMERIS_TYPE": 0,
    "CLASSIFICATION_TYPE": "U",
    "NORAD_CAT_ID": 33870,
    "ELEMENT_SET_NO": 999,
    "REV_AT_EPOCH": 77031,
    "BSTAR": 0.0010963,
    "MEAN_MOTION_DOT": 3.394e-5,
    "MEAN_MOTION_DDOT": 0
},{
    "OBJECT_NAME": "IRIDIUM 33 DEB",
    "OBJECT_ID": "1997-051AS",
    "EPOCH": "2023-11-02T13:14:39.610176",
    "MEAN_MOTION": 14.80299785,
    "ECCENTRICITY": 0.0016077,
    "INCLINATION": 86.359,
    "RA_OF_ASC_NODE": 315.4254,
    "ARG_OF_PERICENTER": 177.691,
    "MEAN_ANOMALY": 182.4389,
    "EPHEMERIS_TYPE": 0,
    "CLASSIFICATION_TYPE": "U",
    "NORAD_CAT_ID": 33873,
    "ELEMENT_SET_NO": 999,
    "REV_AT_EPOCH": 77927,
    "BSTAR": 0.0035075,
    "MEAN_MOTION_DOT": 0.00026871,
    "MEAN_MOTION_DDOT": 0
},{
    "OBJECT_NAME": "IRIDIUM 33 DEB",
    "OBJECT_ID": "1997-051AT",
    "EPOCH": "2023-11-02T15:33:49.904928",
    "MEAN_MOTION": 14.46801972,
    "ECCENTRICITY": 0.004431,
    "INCLINATION": 86.2826,
    "RA_OF_ASC_NODE": 355.2123,
    "ARG_OF_PERICENTER": 46.5938,
    "MEAN_ANOMALY": 67.4203,
    "EPHEMERIS_TYPE": 0,
    "CLASSIFICATION_TYPE": "U",
    "NORAD_CAT_ID": 33874,
    "ELEMENT_SET_NO": 999,
    "REV_AT_EPOCH": 76676,
    "BSTAR": 0.0040506,
    "MEAN_MOTION_DOT": 0.00014886,
    "MEAN_MOTION_DDOT": 0
}]